[{"OBJECT_NAME":"YAOGAN-36 02B","OBJECT_ID":"2022-133B","EPOCH":"2026-03-09T22:42:31.775904","MEAN_MOTION":15.30199518,"ECCENTRICITY":0.00056841,"INCLINATION":34.9983,"RA_OF_ASC_NODE":22.5268,"ARG_OF_PERICENTER":273.0351,"MEAN_ANOMALY":86.9715,"EPHEMERIS_TYPE":0,"CLASSIFICATION_TYPE":"U","NORAD_CAT_ID":54043,"ELEMENT_SET_NO":999,"REV_AT_EPOCH":18962,"BSTAR":0.00051218814,"MEAN_MOTION_DOT":0.00015352,"MEAN_MOTION_DDOT":0},{"OBJECT_NAME":"STARLINK-35622","OBJECT_ID":"2025-236T","EPOCH":"2026-03-09T11:54:58.350816","MEAN_MOTION":15.30199382,"ECCENTRICITY":0.00012826,"INCLINATION":53.1592,"RA_OF_ASC_NODE":104.8678,"ARG_OF_PERICENTER":57.9263,"MEAN_ANOMALY":302.1862,"EPHEMERIS_TYPE":0,"CLASSIFICATION_TYPE":"U","NORAD_CAT_ID":66103,"ELEMENT_SET_NO":999,"REV_AT_EPOCH":2291,"BSTAR":0.0010900218,"MEAN_MOTION_DOT":0.00032063,"MEAN_MOTION_DDOT":0}]
